start=new Date('2022-04-10T00:00:00.000Z').valueOf();
sats=[{"COUNTRY_CODE":"US","PERIOD":"95.592","OBJECT_NAME":"STARLINK-2149","LAUNCH_DATE":"2021-03-04","PERIAPSIS":"546.191","TLE_LINE2":"2 47738  53.0529 140.5829 0001473  55.2832 304.8295 15.06400812 62404","CENTER_NAME":"EARTH","NORAD_CAT_ID":"47738","EPHEMERIS_TYPE":"0","TIME_SYSTEM":"UTC","RCS_SIZE":"LARGE","MEAN_ELEMENT_THEORY":"SGP4","BSTAR":"0.00016244000000","SITE":"AFETR","OBJECT_TYPE":"PAYLOAD","MEAN_MOTION_DOT":"0.00002139","ARG_OF_PERICENTER":"55.2832","APOAPSIS":"548.231","REV_AT_EPOCH":"6240","EPOCH":"2022-04-09T19:34:01.655616","TLE_LINE1":"1 47738U 21017S   22099.81529694  .00002139  00000-0  16244-3 0  9991","INCLINATION":"53.0529","REF_FRAME":"TEME","GP_ID":"200862634","ECCENTRICITY":"0.00014730","DECAY_DATE":null,"RA_OF_ASC_NODE":"140.5829","OBJECT_ID":"2021-017S","ELEMENT_SET_NO":"999","FILE":"3395351","MEAN_ANOMALY":"304.8295","MEAN_MOTION":"15.06400812","MEAN_MOTION_DDOT":"0.0000000000000","CLASSIFICATION_TYPE":"U","SEMIMAJOR_AXIS":"6925.346"},{"TLE_LINE2":"2 47739  53.0536 166.2611 0001701  54.6556 305.4592 15.06401284 62037","PERIAPSIS":"546.032","CENTER_NAME":"EARTH","LAUNCH_DATE":"2021-03-04","OBJECT_NAME":"STARLINK-2150","PERIOD":"95.592","COUNTRY_CODE":"US","ARG_OF_PERICENTER":"54.6556","OBJECT_TYPE":"PAYLOAD","MEAN_MOTION_DOT":"-0.00001221","SITE":"AFETR","MEAN_ELEMENT_THEORY":"SGP4","BSTAR":"-0.00006308800000","TIME_SYSTEM":"UTC","RCS_SIZE":"LARGE","NORAD_CAT_ID":"47739","EPHEMERIS_TYPE":"0","DECAY_DATE":null,"ECCENTRICITY":"0.00017010","GP_ID":"200863376","TLE_LINE1":"1 47739U 21017T   22099.66371187 -.00001221  00000-0 -63088-4 0  9999","INCLINATION":"53.0536","REF_FRAME":"TEME","EPOCH":"2022-04-09T15:55:44.705568","REV_AT_EPOCH":"6203","APOAPSIS":"548.388","SEMIMAJOR_AXIS":"6925.345","CLASSIFICATION_TYPE":"U","MEAN_MOTION_DDOT":"0.0000000000000","ELEMENT_SET_NO":"999","FILE":"3395351","MEAN_MOTION":"15.06401284","MEAN_ANOMALY":"305.4592","RA_OF_ASC_NODE":"166.2611","OBJECT_ID":"2021-017T"},{"REV_AT_EPOCH":"6226","EPOCH":"2022-04-09T20:15:09.725184","APOAPSIS":"548.301","ECCENTRICITY":"0.00015580","GP_ID":"200863606","DECAY_DATE":null,"INCLINATION":"53.0529","TLE_LINE1":"1 47740U 21017U   22099.84386256  .00000124  00000-0  27197-4 0  9994","REF_FRAME":"TEME","OBJECT_ID":"2021-017U","RA_OF_ASC_NODE":"150.4506","MEAN_ANOMALY":"303.1833","FILE":"3395351","ELEMENT_SET_NO":"999","MEAN_MOTION":"15.06397313","SEMIMAJOR_AXIS":"6925.357","CLASSIFICATION_TYPE":"U","MEAN_MOTION_DDOT":"0.0000000000000","PERIOD":"95.592","COUNTRY_CODE":"US","LAUNCH_DATE":"2021-03-04","CENTER_NAME":"EARTH","PERIAPSIS":"546.143","TLE_LINE2":"2 47740  53.0529 150.4506 0001558  56.9305 303.1833 15.06397313 62261","OBJECT_NAME":"STARLINK-2152","BSTAR":"0.00002719700000","MEAN_ELEMENT_THEORY":"SGP4","SITE":"AFETR","EPHEMERIS_TYPE":"0","NORAD_CAT_ID":"47740","TIME_SYSTEM":"UTC","RCS_SIZE":"LARGE","ARG_OF_PERICENTER":"56.9305","MEAN_MOTION_DOT":"0.00000124","OBJECT_TYPE":"PAYLOAD"},{"COUNTRY_CODE":"US","PERIOD":"95.593","OBJECT_NAME":"STARLINK-2154","TLE_LINE2":"2 47741  53.0536 150.3840 0001813  59.2343 300.8825 15.06393057 62224","PERIAPSIS":"545.979","CENTER_NAME":"EARTH","LAUNCH_DATE":"2021-03-04","TIME_SYSTEM":"UTC","RCS_SIZE":"LARGE","NORAD_CAT_ID":"47741","EPHEMERIS_TYPE":"0","SITE":"AFETR","MEAN_ELEMENT_THEORY":"SGP4","BSTAR":"-0.00004773300000","OBJECT_TYPE":"PAYLOAD","MEAN_MOTION_DOT":"-0.00000992","ARG_OF_PERICENTER":"59.2343","APOAPSIS":"548.490","EPOCH":"2022-04-09T20:36:23.758848","REV_AT_EPOCH":"6222","TLE_LINE1":"1 47741U 21017V   22099.85860832 -.00000992  00000-0 -47733-4 0  9996","INCLINATION":"53.0536","REF_FRAME":"TEME","DECAY_DATE":null,"GP_ID":"200862381","ECCENTRICITY":"0.00018130","FILE":"3395351","ELEMENT_SET_NO":"999","MEAN_MOTION":"15.06393057","MEAN_ANOMALY":"300.8825","RA_OF_ASC_NODE":"150.3840","OBJECT_ID":"2021-017V","MEAN_MOTION_DDOT":"0.0000000000000","CLASSIFICATION_TYPE":"U","SEMIMAJOR_AXIS":"6925.370"},{"SITE":"AFETR","MEAN_ELEMENT_THEORY":"SGP4","BSTAR":"-0.00005874400000","RCS_SIZE":"LARGE","TIME_SYSTEM":"UTC","EPHEMERIS_TYPE":"0","NORAD_CAT_ID":"47742","ARG_OF_PERICENTER":"56.1696","OBJECT_TYPE":"PAYLOAD","MEAN_MOTION_DOT":"-0.00001157","PERIOD":"95.592","COUNTRY_CODE":"US","TLE_LINE2":"2 47742  53.0531 140.6321 0001520  56.1696 303.9438 15.06405005 62409","PERIAPSIS":"546.146","CENTER_NAME":"EARTH","LAUNCH_DATE":"2021-03-04","OBJECT_NAME":"STARLINK-2156","FILE":"3395351","ELEMENT_SET_NO":"999","MEAN_ANOMALY":"303.9438","MEAN_MOTION":"15.06405005","RA_OF_ASC_NODE":"140.6321","OBJECT_ID":"2021-017W","SEMIMAJOR_AXIS":"6925.333","MEAN_MOTION_DDOT":"0.0000000000000","CLASSIFICATION_TYPE":"U","EPOCH":"2022-04-09T19:18:06.269472","REV_AT_EPOCH":"6240","APOAPSIS":"548.251","DECAY_DATE":null,"GP_ID":"200862135","ECCENTRICITY":"0.00015200","TLE_LINE1":"1 47742U 21017W   22099.80423923 -.00001157  00000-0 -58744-4 0  9996","INCLINATION":"53.0531","REF_FRAME":"TEME"},{"FILE":"3395351","MEAN_ANOMALY":"308.1624","ELEMENT_SET_NO":"999","MEAN_MOTION":"15.06399833","OBJECT_ID":"2021-017X","RA_OF_ASC_NODE":"140.5137","MEAN_MOTION_DDOT":"0.0000000000000","CLASSIFICATION_TYPE":"U","SEMIMAJOR_AXIS":"6925.349","APOAPSIS":"548.451","EPOCH":"2022-04-09T19:55:15.392064","REV_AT_EPOCH":"6238","TLE_LINE1":"1 47743U 21017X   22099.83003926  .00000365  00000-0  43411-4 0  9990","INCLINATION":"53.0545","REF_FRAME":"TEME","DECAY_DATE":null,"ECCENTRICITY":"0.00017860","GP_ID":"200862877","TIME_SYSTEM":"UTC","RCS_SIZE":"LARGE","EPHEMERIS_TYPE":"0","NORAD_CAT_ID":"47743","SITE":"AFETR","MEAN_ELEMENT_THEORY":"SGP4","BSTAR":"0.00004341100000","OBJECT_TYPE":"PAYLOAD","MEAN_MOTION_DOT":"0.00000365","ARG_OF_PERICENTER":"51.9525","COUNTRY_CODE":"US","PERIOD":"95.592","OBJECT_NAME":"STARLINK-2157","PERIAPSIS":"545.977","TLE_LINE2":"2 47743  53.0545 140.5137 0001786  51.9525 308.1624 15.06399833 62389","CENTER_NAME":"EARTH","LAUNCH_DATE":"2021-03-04"},{"MEAN_MOTION_DDOT":"0.0000000000000","CLASSIFICATION_TYPE":"U","SEMIMAJOR_AXIS":"6925.351","OBJECT_ID":"2021-017Y","RA_OF_ASC_NODE":"140.6214","MEAN_MOTION":"15.06399104","FILE":"3395351","ELEMENT_SET_NO":"999","MEAN_ANOMALY":"304.8510","INCLINATION":"53.0540","TLE_LINE1":"1 47744U 21017Y   22099.80792504 -.00001120  00000-0 -56295-4 0  9991","REF_FRAME":"TEME","GP_ID":"200863107","ECCENTRICITY":"0.00017060","DECAY_DATE":null,"APOAPSIS":"548.398","REV_AT_EPOCH":"6240","EPOCH":"2022-04-09T19:23:24.723456","OBJECT_TYPE":"PAYLOAD","MEAN_MOTION_DOT":"-0.00001120","ARG_OF_PERICENTER":"55.2640","NORAD_CAT_ID":"47744","EPHEMERIS_TYPE":"0","TIME_SYSTEM":"UTC","RCS_SIZE":"LARGE","MEAN_ELEMENT_THEORY":"SGP4","BSTAR":"-0.00005629500000","SITE":"AFETR","OBJECT_NAME":"STARLINK-2158","LAUNCH_DATE":"2021-03-04","PERIAPSIS":"546.035","TLE_LINE2":"2 47744  53.0540 140.6214 0001706  55.2640 304.8510 15.06399104 62400","CENTER_NAME":"EARTH","COUNTRY_CODE":"US","PERIOD":"95.592"},{"CLASSIFICATION_TYPE":"U","MEAN_MOTION_DDOT":"0.0000000000000","SEMIMAJOR_AXIS":"6925.376","FILE":"3395351","MEAN_MOTION":"15.06390990","ELEMENT_SET_NO":"999","MEAN_ANOMALY":"298.6629","OBJECT_ID":"2021-017Z","RA_OF_ASC_NODE":"150.4843","TLE_LINE1":"1 47745U 21017Z   22099.83649388 -.00002439  00000-0 -14492-3 0  9992","INCLINATION":"53.0514","REF_FRAME":"TEME","DECAY_DATE":null,"GP_ID":"200861882","ECCENTRICITY":"0.00015290","APOAPSIS":"548.300","EPOCH":"2022-04-09T20:04:33.071232","REV_AT_EPOCH":"6221","MEAN_MOTION_DOT":"-0.00002439","OBJECT_TYPE":"PAYLOAD","ARG_OF_PERICENTER":"61.4514","RCS_SIZE":"LARGE","TIME_SYSTEM":"UTC","EPHEMERIS_TYPE":"0","NORAD_CAT_ID":"47745","SITE":"AFETR","BSTAR":"-0.00014492000000","MEAN_ELEMENT_THEORY":"SGP4","OBJECT_NAME":"STARLINK-2159","CENTER_NAME":"EARTH","TLE_LINE2":"2 47745  53.0514 150.4843 0001529  61.4514 298.6629 15.06390990 62215","PERIAPSIS":"546.182","LAUNCH_DATE":"2021-03-04","COUNTRY_CODE":"US","PERIOD":"95.593"},{"FILE":"3395351","MEAN_ANOMALY":"303.3972","ELEMENT_SET_NO":"999","MEAN_MOTION":"15.06392709","OBJECT_ID":"2021-017AA","RA_OF_ASC_NODE":"150.5091","CLASSIFICATION_TYPE":"U","MEAN_MOTION_DDOT":"0.0000000000000","SEMIMAJOR_AXIS":"6925.371","APOAPSIS":"548.439","EPOCH":"2022-04-09T19:53:56.077728","REV_AT_EPOCH":"6220","TLE_LINE1":"1 47746U 21017AA  22099.82912127 -.00000102  00000-0  12068-4 0  9998","REF_FRAME":"TEME","INCLINATION":"53.0543","DECAY_DATE":null,"ECCENTRICITY":"0.00017370","GP_ID":"200862635","RCS_SIZE":"LARGE","TIME_SYSTEM":"UTC","NORAD_CAT_ID":"47746","EPHEMERIS_TYPE":"0","SITE":"AFETR","BSTAR":"0.00001206800000","MEAN_ELEMENT_THEORY":"SGP4","MEAN_MOTION_DOT":"-0.00000102","OBJECT_TYPE":"PAYLOAD","ARG_OF_PERICENTER":"56.7183","COUNTRY_CODE":"US","PERIOD":"95.593","OBJECT_NAME":"STARLINK-2160","CENTER_NAME":"EARTH","PERIAPSIS":"546.033","TLE_LINE2":"2 47746  53.0543 150.5091 0001737  56.7183 303.3972 15.06392709 62208","LAUNCH_DATE":"2021-03-04"},{"OBJECT_ID":"2021-017AB","RA_OF_ASC_NODE":"140.5290","ELEMENT_SET_NO":"999","FILE":"3395351","MEAN_ANOMALY":"299.8850","MEAN_MOTION":"15.06392939","SEMIMAJOR_AXIS":"6925.370","MEAN_MOTION_DDOT":"0.0000000000000","CLASSIFICATION_TYPE":"U","REV_AT_EPOCH":"6238","EPOCH":"2022-04-09T19:49:56.932032","APOAPSIS":"548.331","GP_ID":"200863377","ECCENTRICITY":"0.00015820","DECAY_DATE":null,"REF_FRAME":"TEME","TLE_LINE1":"1 47747U 21017AB  22099.82635338 -.00000147  00000-0  90541-5 0  9997","INCLINATION":"53.0515","MEAN_ELEMENT_THEORY":"SGP4","BSTAR":"0.00000905410000","SITE":"AFETR","NORAD_CAT_ID":"47747","EPHEMERIS_TYPE":"0","TIME_SYSTEM":"UTC","RCS_SIZE":"LARGE","ARG_OF_PERICENTER":"60.2296","OBJECT_TYPE":"PAYLOAD","MEAN_MOTION_DOT":"-0.00000147","PERIOD":"95.593","COUNTRY_CODE":"US","LAUNCH_DATE":"2021-03-04","PERIAPSIS":"546.140","TLE_LINE2":"2 47747  53.0515 140.5290 0001582  60.2296 299.8850 15.06392939 62389","CENTER_NAME":"EARTH","OBJECT_NAME":"STARLINK-2161"}];
